{
  "type": "FeatureCollection",
  "features": [
    {
      "type": "Feature",
      "properties": {
        "norad_id": 33860,
        "name": "IRIDIUM 33 DEB",
        "group": "iridium-33-debris",
        "lat": 79.41093158969564,
        "lon": -171.597708362622,
        "alt_km": 662.7903105825526,
        "timestamp": "2025-12-10T14:53:37.473100+00:00",
        "meta_object_name": "IRIDIUM 33 DEB",
        "meta_object_id": "1997-051AD",
        "meta_epoch": "2025-12-09T21:13:16.279680",
        "meta_mean_motion": 14.67309939,
        "meta_eccentricity": 0.00078248,
        "meta_inclination": 86.3835,
        "meta_ra_of_asc_node": 28.5019,
        "meta_arg_of_pericenter": 7.8125,
        "meta_mean_anomaly": 164.8827,
        "meta_ephemeris_type": 0,
        "meta_classification_type": "U",
        "meta_norad_cat_id": 33860,
        "meta_element_set_no": 999,
        "meta_rev_at_epoch": 88680,
        "meta_bstar": 0.0019516375,
        "meta_mean_motion_dot": 0.00011043,
        "meta_mean_motion_ddot": 0,
        "tle_line1": "1 33860U 97051AD  25343.88421620  .00011043  00000+0  19516-2 0  9992",
        "tle_line2": "2 33860  86.3835  28.5019 0007824   7.8125 164.8827 14.67309939886801"
      },
      "geometry": {
        "type": "Point",
        "coordinates": [
          -171.597708362622,
          79.41093158969564
        ]
      }
    },
    {
      "type": "Feature",
      "properties": {
        "norad_id": 33862,
        "name": "IRIDIUM 33 DEB",
        "group": "iridium-33-debris",
        "lat": 60.21477091077064,
        "lon": -147.8347888828863,
        "alt_km": 629.591436839115,
        "timestamp": "2025-12-10T14:53:37.473111+00:00",
        "meta_object_name": "IRIDIUM 33 DEB",
        "meta_object_id": "1997-051AF",
        "meta_epoch": "2025-12-10T04:48:51.418368",
        "meta_mean_motion": 14.69405819,
        "meta_eccentricity": 0.0053669,
        "meta_inclination": 86.4089,
        "meta_ra_of_asc_node": 38.6496,
        "meta_arg_of_pericenter": 77.6795,
        "meta_mean_anomaly": 341.2532,
        "meta_ephemeris_type": 0,
        "meta_classification_type": "U",
        "meta_norad_cat_id": 33862,
        "meta_element_set_no": 999,
        "meta_rev_at_epoch": 88786,
        "meta_bstar": 0.0019581358,
        "meta_mean_motion_dot": 0.00011873,
        "meta_mean_motion_ddot": 0,
        "tle_line1": "1 33862U 97051AF  25344.20059512  .00011873  00000+0  19581-2 0  9991",
        "tle_line2": "2 33862  86.4089  38.6496 0053669  77.6795 341.2532 14.69405819887869"
      },
      "geometry": {
        "type": "Point",
        "coordinates": [
          -147.8347888828863,
          60.21477091077064
        ]
      }
    },
    {
      "type": "Feature",
      "properties": {
        "norad_id": 33866,
        "name": "IRIDIUM 33 DEB",
        "group": "iridium-33-debris",
        "lat": 19.09550962771834,
        "lon": -87.35158215866053,
        "alt_km": 726.392068995232,
        "timestamp": "2025-12-10T14:53:37.473121+00:00",
        "meta_object_name": "IRIDIUM 33 DEB",
        "meta_object_id": "1997-051AK",
        "meta_epoch": "2025-12-10T07:29:42.779616",
        "meta_mean_motion": 14.25261956,
        "meta_eccentricity": 0.01142885,
        "meta_inclination": 86.2999,
        "meta_ra_of_asc_node": 94.0625,
        "meta_arg_of_pericenter": 169.117,
        "meta_mean_anomaly": 211.0673,
        "meta_ephemeris_type": 0,
        "meta_classification_type": "U",
        "meta_norad_cat_id": 33866,
        "meta_element_set_no": 999,
        "meta_rev_at_epoch": 86776,
        "meta_bstar": 0.0011075434,
        "meta_mean_motion_dot": 2.807e-05,
        "meta_mean_motion_ddot": 0,
        "tle_line1": "1 33866U 97051AK  25344.31230069  .00002807  00000+0  11075-2 0  9992",
        "tle_line2": "2 33866  86.2999  94.0625 0114288 169.1170 211.0673 14.25261956867761"
      },
      "geometry": {
        "type": "Point",
        "coordinates": [
          -87.35158215866053,
          19.09550962771834
        ]
      }
    },
    {
      "type": "Feature",
      "properties": {
        "norad_id": 33867,
        "name": "IRIDIUM 33 DEB",
        "group": "iridium-33-debris",
        "lat": -25.26040874513219,
        "lon": 172.92242037756196,
        "alt_km": 387.20394421256515,
        "timestamp": "2025-12-10T14:53:37.473131+00:00",
        "meta_object_name": "IRIDIUM 33 DEB",
        "meta_object_id": "1997-051AL",
        "meta_epoch": "2025-12-10T01:43:40.843200",
        "meta_mean_motion": 15.62710483,
        "meta_eccentricity": 0.00130842,
        "meta_inclination": 86.3647,
        "meta_ra_of_asc_node": 351.486,
        "meta_arg_of_pericenter": 90.2976,
        "meta_mean_anomaly": 269.979,
        "meta_ephemeris_type": 0,
        "meta_classification_type": "U",
        "meta_norad_cat_id": 33867,
        "meta_element_set_no": 999,
        "meta_rev_at_epoch": 89469,
        "meta_bstar": 0.0085299038,
        "meta_mean_motion_dot": 0.0083324,
        "meta_mean_motion_ddot": 0,
        "tle_line1": "1 33867U 97051AL  25344.07200050  .00833240  00000+0  85299-2 0  9995",
        "tle_line2": "2 33867  86.3647 351.4860 0013084  90.2976 269.9790 15.62710483894694"
      },
      "geometry": {
        "type": "Point",
        "coordinates": [
          172.92242037756196,
          -25.26040874513219
        ]
      }
    },
    {
      "type": "Feature",
      "properties": {
        "norad_id": 33870,
        "name": "IRIDIUM 33 DEB",
        "group": "iridium-33-debris",
        "lat": 76.7661491772929,
        "lon": -136.47214699463495,
        "alt_km": 730.0798999591098,
        "timestamp": "2025-12-10T14:53:37.473141+00:00",
        "meta_object_name": "IRIDIUM 33 DEB",
        "meta_object_id": "1997-051AP",
        "meta_epoch": "2025-12-10T06:24:18.912384",
        "meta_mean_motion": 14.45830234,
        "meta_eccentricity": 0.00212051,
        "meta_inclination": 86.3744,
        "meta_ra_of_asc_node": 59.3205,
        "meta_arg_of_pericenter": 186.1349,
        "meta_mean_anomaly": 237.0541,
        "meta_ephemeris_type": 0,
        "meta_classification_type": "U",
        "meta_norad_cat_id": 33870,
        "meta_element_set_no": 999,
        "meta_rev_at_epoch": 88101,
        "meta_bstar": 0.0012180953,
        "meta_mean_motion_dot": 4.353e-05,
        "meta_mean_motion_ddot": 0,
        "tle_line1": "1 33870U 97051AP  25344.26688556  .00004353  00000+0  12181-2 0  9996",
        "tle_line2": "2 33870  86.3744  59.3205 0021205 186.1349 237.0541 14.45830234881015"
      },
      "geometry": {
        "type": "Point",
        "coordinates": [
          -136.47214699463495,
          76.7661491772929
        ]
      }
    },
    {
      "type": "Feature",
      "properties": {
        "norad_id": 33881,
        "name": "IRIDIUM 33 DEB",
        "group": "iridium-33-debris",
        "lat": -70.06013713884363,
        "lon": -62.30630655792565,
        "alt_km": 696.0193613172405,
        "timestamp": "2025-12-10T14:53:37.473151+00:00",
        "meta_object_name": "IRIDIUM 33 DEB",
        "meta_object_id": "1997-051BA",
        "meta_epoch": "2025-12-09T10:01:33.652704",
        "meta_mean_motion": 14.56473135,
        "meta_eccentricity": 0.00614296,
        "meta_inclination": 86.3869,
        "meta_ra_of_asc_node": 108.1859,
        "meta_arg_of_pericenter": 185.4197,
        "meta_mean_anomaly": 241.4979,
        "meta_ephemeris_type": 0,
        "meta_classification_type": "U",
        "meta_norad_cat_id": 33881,
        "meta_element_set_no": 999,
        "meta_rev_at_epoch": 87452,
        "meta_bstar": 0.0028428363,
        "meta_mean_motion_dot": 0.00012995,
        "meta_mean_motion_ddot": 0,
        "tle_line1": "1 33881U 97051BA  25343.41775061  .00012995  00000+0  28428-2 0  9994",
        "tle_line2": "2 33881  86.3869 108.1859 0061429 185.4197 241.4979 14.56473135874525"
      },
      "geometry": {
        "type": "Point",
        "coordinates": [
          -62.30630655792565,
          -70.06013713884363
        ]
      }
    },
    {
      "type": "Feature",
      "properties": {
        "norad_id": 33884,
        "name": "IRIDIUM 33 DEB",
        "group": "iridium-33-debris",
        "lat": 37.42850391921342,
        "lon": 13.560013986592296,
        "alt_km": 632.1888782093265,
        "timestamp": "2025-12-10T14:53:37.473161+00:00",
        "meta_object_name": "IRIDIUM 33 DEB",
        "meta_object_id": "1997-051BD",
        "meta_epoch": "2025-12-10T01:50:22.540992",
        "meta_mean_motion": 14.77342493,
        "meta_eccentricity": 0.00099622,
        "meta_inclination": 86.3694,
        "meta_ra_of_asc_node": 11.0201,
        "meta_arg_of_pericenter": 333.9482,
        "meta_mean_anomaly": 52.6252,
        "meta_ephemeris_type": 0,
        "meta_classification_type": "U",
        "meta_norad_cat_id": 33884,
        "meta_element_set_no": 999,
        "meta_rev_at_epoch": 88808,
        "meta_bstar": 0.0018952534,
        "meta_mean_motion_dot": 0.00013509,
        "meta_mean_motion_ddot": 0,
        "tle_line1": "1 33884U 97051BD  25344.07664978  .00013509  00000+0  18953-2 0  9998",
        "tle_line2": "2 33884  86.3694  11.0201 0009962 333.9482  52.6252 14.77342493888085"
      },
      "geometry": {
        "type": "Point",
        "coordinates": [
          13.560013986592296,
          37.42850391921342
        ]
      }
    }
  ]
}